{
  "norad_id": 62089,
  "name": "STARLINK-11379 [DTC]",
  "history": [
    {
      "epoch": "2026-03-28T21:59:32.620992",
      "apogee_km": 357.35116391677,
      "perigee_km": 355.5180135303199,
      "latitude_deg": 12.865462880325744,
      "longitude_deg": 116.86957887979224,
      "semi_major_axis_km": 6734.571588723545,
      "eccentricity": 0.0001361,
      "inclination_deg": 42.9989,
      "raan_deg": 287.4846,
      "arg_perigee_deg": 291.7397,
      "mean_anomaly_deg": 68.3325,
      "mean_motion_rev_day": 15.70861158
    }
  ]
}